OBJECT_NAME,OBJECT_ID,EPOCH,MEAN_MOTION,ECCENTRICITY,INCLINATION,RA_OF_ASC_NODE,ARG_OF_PERICENTER,MEAN_ANOMALY,EPHEMERIS_TYPE,CLASSIFICATION_TYPE,NORAD_CAT_ID,ELEMENT_SET_NO,REV_AT_EPOCH,BSTAR,MEAN_MOTION_DOT,MEAN_MOTION_DDOT
CENTAURI-1,2018-099BD,2026-05-26T02:21:04.978656,15.16098888,.00153105,97.4237,198.2939,50.3102,309.9478,0,U,43809,999,40915,.29718135E-3,.5674E-4,0
NEXTSAT-1,2018-099BF,2026-05-26T02:30:48.247776,15.08485517,.00137062,97.4085,189.5953,57.9990,302.2569,0,U,43811,999,40855,.15647892E-3,.2383E-4,0
GLOBAL-2,2018-099BG,2026-05-26T01:17:23.504064,15.08519509,.0004847,97.3571,183.4883,217.2262,142.8631,0,U,43812,999,40857,.24992256E-3,.384E-4,0
FALCONSAT-6,2018-099BK,2026-05-26T04:16:54.787296,15.27137762,.00160182,97.3804,222.4224,26.5936,34.1079,0,U,43815,999,41037,.14516818E-3,.3802E-4,0
EXCITE,2018-099BP,2026-05-26T02:13:08.359968,15.06392383,.00201497,97.3983,185.7336,69.6385,290.7005,0,U,43819,999,40842,.14908467E-3,.2145E-4,0
SEAHAWK-1,2018-099BQ,2026-05-26T02:53:36.207744,15.22381961,.00089599,97.3975,198.9470,38.3127,321.8745,0,U,43820,999,40917,.36715487E-3,.842E-4,0
GEO-KOMPSAT-2A,2018-100A,2026-05-26T04:18:22.345056,1.00270796,.00022828,0.0518,114.9011,322.1518,359.5575,0,U,43823,999,2740,0,-.342E-5,0
GSAT-11,2018-100B,2026-05-26T04:03:01.316736,1.00271958,.00077513,0.0783,260.6911,180.1084,297.6990,0,U,43824,999,2725,0,-.75E-6,0
SAUDISAT 5A,2018-102A,2026-05-26T06:59:02.356800,15.27785177,.00090774,97.3081,208.2963,201.8772,158.2081,0,U,43831,999,41233,.21762819E-3,.5839E-4,0
SAUDISAT 5B,2018-102C,2026-05-26T07:31:36.185664,15.28055343,.00097128,97.3187,211.3484,204.8555,155.2219,0,U,43833,999,41245,.20852007E-3,.5639E-4,0
GSAT-7A,2018-105A,2026-05-26T05:39:38.566656,1.00273059,.00028027,0.0446,260.3827,138.6452,352.4522,0,U,43864,999,2722,0,.28E-6,0
COSMOS 2533,2018-107A,2026-05-26T04:01:53.924736,1.00272055,.00006447,0.0173,64.0523,74.9278,235.2337,0,U,43867,999,2722,0,0,0
HONGYUN 1,2018-108A,2026-05-26T07:57:27.896832,13.51210083,.00146433,99.7563,168.5355,108.2902,251.9827,0,U,43871,999,36613,.2204371E-3,.99E-6,0
NAVSTAR 77 (USA 289),2018-109A,2026-05-26T07:37:34.169376,2.00560756,.00380535,55.6698,93.0488,198.4755,334.6377,0,U,43873,999,5463,0,-.15E-6,0
TJS-3,2018-110A,2026-05-25T19:10:46.618752,1.00268510,.0001354,2.4894,80.7527,47.2355,191.2333,0,U,43874,999,2719,0,-.217E-5,0
KANOPUS-V 5,2018-111A,2026-05-26T07:31:51.985632,15.22861349,.00019189,97.3599,52.2662,80.7350,279.4103,0,U,43876,999,41145,.11703665E-3,.2671E-4,0
KANOPUS-V 6,2018-111B,2026-05-26T07:49:46.560576,15.40977689,.00025103,97.3718,63.1696,78.3755,281.7773,0,U,43877,999,41215,.48762036E-3,.20035E-3,0
ISAT,2018-111D,2026-05-26T06:30:09.454464,15.61181886,.00060507,97.5892,79.8741,57.9768,302.2076,0,U,43879,999,40774,.10712511E-2,.91339E-3,0
UWE-4,2018-111E,2026-05-26T06:21:18.995616,15.44579788,.00096484,97.5854,73.6696,56.3205,303.8962,0,U,43880,999,40739,.77919795E-3,.36305E-3,0
D-STAR ONE (SPARROW),2018-111F,2026-05-26T06:54:02.080512,15.68151873,.00066066,97.6117,85.1552,91.2064,268.9954,0,U,43881,999,40793,.11624613E-2,.131151E-2,0
GRUS-1A,2018-111Q,2026-05-26T06:32:08.167200,14.99000012,.00072532,97.4568,14.3476,226.7587,133.3032,0,U,43890,999,40442,.21604949E-4,.206E-5,0
YUNHAI-2 01A,2018-112A,2026-05-26T06:50:17.793888,14.29010754,.00002693,50.0078,137.1805,251.1236,108.9650,0,U,43909,999,38795,.12944374E-3,.168E-5,0
YUNHAI-2 01B,2018-112B,2026-05-26T05:38:59.061120,14.29004901,.00049303,50.0099,201.0336,151.8924,208.2258,0,U,43910,999,38710,.1342389E-3,.18E-5,0
YUNHAI-2 01C,2018-112C,2026-05-26T06:17:35.661120,14.28988407,.00006509,50.0112,80.5002,43.8644,316.2323,0,U,43911,999,38865,.20236293E-3,.354E-5,0
YUNHAI-2 01D,2018-112D,2026-05-26T03:59:52.111968,14.29021725,.00153279,50.0117,20.9068,268.7402,91.1757,0,U,43912,999,38443,.79651396E-4,.42E-6,0
YUNHAI-2 01E,2018-112E,2026-05-26T07:59:44.805408,14.29001486,.00050526,50.0069,259.5145,285.7892,74.2466,0,U,43913,999,38603,.86173793E-4,.58E-6,0
HONGYAN 1 (CHONGQING),2018-112F,2026-05-26T03:37:48.275616,13.43819693,.00066943,50.0089,318.0630,188.9243,171.1517,0,U,43914,999,36357,.13146326E-3,-.53E-6,0
YUNHAI-2 01F,2018-112G,2026-05-26T06:47:46.262112,14.29020524,.00069418,50.0124,320.6303,249.1567,110.8605,0,U,43915,999,38517,.21159001E-3,.378E-5,0
ZHONGXING-2D,2019-001A,2026-05-26T07:44:22.674624,1.00267409,.00009084,0.0134,316.1223,48.0115,125.8299,0,U,43920,999,5386,0,0,0
IRIDIUM 180,2019-002A,2026-05-26T07:09:42.898752,14.34217981,.00022239,86.3984,2.7490,89.0017,271.1434,0,U,43922,999,38585,.12710375E-4,.55E-6,0
IRIDIUM 176,2019-002B,2026-05-26T03:17:56.642496,14.72252927,.00022363,86.6104,2.7631,87.4457,272.7016,0,U,43923,999,39600,.1158094E-3,.755E-5,0
IRIDIUM 168,2019-002C,2026-05-26T03:39:38.937600,14.34218040,.00021525,86.3987,2.8867,87.2865,272.8577,0,U,43924,999,38581,.22465763E-4,.83E-6,0
IRIDIUM 173,2019-002D,2026-05-26T03:21:22.961376,14.34217855,.00022654,86.3981,2.7816,86.0838,274.0617,0,U,43925,999,38579,.10491953E-4,.49E-6,0
IRIDIUM 169,2019-002E,2026-05-26T04:52:24.703680,14.38609184,.00025995,86.4244,34.3828,73.1759,286.9725,0,U,43926,999,38706,.93121968E-4,.305E-5,0
IRIDIUM 172,2019-002F,2026-05-26T03:12:14.803488,14.34216927,.00022348,86.3982,2.7921,89.0941,271.0511,0,U,43927,999,38580,.6483572E-5,.38E-6,0
IRIDIUM 175,2019-002G,2026-05-26T03:56:35.424096,14.43598515,.00015032,86.4492,299.7305,334.0087,26.1038,0,U,43928,999,39580,.89080499E-4,.322E-5,0
IRIDIUM 171,2019-002H,2026-05-26T02:44:50.813664,14.34218577,.00021027,86.3991,3.1040,83.7419,276.4016,0,U,43929,999,38579,.3700405E-4,.123E-5,0
IRIDIUM 170,2019-002J,2026-05-26T01:48:57.561408,14.72255669,.00023799,86.6104,2.7916,89.9557,270.1932,0,U,43930,999,39600,.11370795E-3,.742E-5,0
IRIDIUM 167,2019-002K,2026-05-26T02:35:42.854496,14.34218152,.00020407,86.3983,2.8251,78.5135,281.6290,0,U,43931,999,38579,.20752955E-4,.78E-6,0
JILIN-1 09,2019-005B,2026-05-26T06:20:14.610336,15.20287376,.00032232,97.4725,241.4190,139.5486,220.5990,0,U,43943,999,40581,.25352737E-3,.5438E-4,0
JILIN-1 10,2019-005E,2026-05-26T06:50:29.123520,15.25445191,.00079557,97.4768,245.0959,7.8177,352.3183,0,U,43946,999,40597,.26271558E-3,.6576E-4,0
HELLAS-SAT 4 & SGS-1,2019-007A,2026-05-26T03:53:02.273568,1.00272799,.00046256,0.0650,124.9595,11.8585,204.2012,0,U,44034,999,2714,0,.154E-5,0
GSAT-31,2019-007B,2026-05-26T05:47:38.770944,1.00272059,.00016238,0.0527,104.0256,253.0243,21.5886,0,U,44035,999,2674,0,.127E-5,0
EGYPTSAT-A (MISRSAT-A),2019-008A,2026-05-26T06:13:32.807136,14.72275350,.00011557,98.0047,211.3398,84.7975,275.3364,0,U,44047,999,39001,.36432445E-4,.181E-5,0
NUSANTARA SATU,2019-009A,2026-05-26T05:12:38.540736,1.00267313,.00041816,0.0132,106.4162,359.3686,2.1697,0,U,44048,999,2655,0,0,0
ONEWEB-0012,2019-010A,2026-05-26T06:57:40.522176,13.16593255,.00022986,87.9105,233.1326,92.0694,268.0700,0,U,44057,999,34868,.12987832E-3,.62E-6,0
ONEWEB-0010,2019-010B,2026-05-26T05:44:42.708480,13.16593457,.0001621,87.9106,233.1383,98.3342,261.7973,0,U,44058,999,34872,.22288363E-3,.98E-6,0
ONEWEB-0008,2019-010C,2026-05-26T06:21:12.726432,13.16594526,.00021611,87.9103,233.1290,106.4413,253.6955,0,U,44059,999,34884,-.21809239E-4,.5E-7,0
ONEWEB-0007,2019-010D,2026-05-26T06:46:40.243872,13.15547010,.00017867,87.8991,263.5861,90.4585,269.6750,0,U,44060,999,34849,-.18269246E-3,-.56E-6,0
ONEWEB-0006,2019-010E,2026-05-26T06:52:21.801216,13.15548641,.00017454,87.8999,263.5474,98.6033,261.5295,0,U,44061,999,34854,-.88164427E-3,-.319E-5,0
ONEWEB-0011,2019-010F,2026-05-26T06:06:45.540864,13.15549385,.00017746,87.9003,263.5631,105.5809,254.5518,0,U,44062,999,34853,.65583642E-4,.38E-6,0
S5,2019-009D,2026-05-26T06:43:17.332608,0.99335461,.00023768,6.5076,71.0943,131.3617,58.4355,0,U,44065,999,2622,0,-.87E-6,0
ZHONGXING-6C,2019-012A,2026-05-26T07:44:30.162912,1.00268362,.00127894,0.1101,80.0142,325.0753,85.3202,0,U,44067,999,2652,0,-.333E-5,0
WGS 10 (USA 291),2019-014A,2026-05-25T16:00:28.255680,1.00272154,.00004887,0.0166,343.5190,34.9608,165.1869,0,U,44071,999,2639,0,.46E-6,0
PRISMA,2019-015A,2026-05-26T06:57:12.387744,14.83651566,.00014009,97.8643,221.3876,89.3083,270.8291,0,U,44072,999,38880,.7606946E-4,.575E-5,0
TIANLIAN 2-01,2019-017A,2026-05-26T04:03:53.733024,1.00271544,.00009229,0.4850,83.0823,322.9991,335.6613,0,U,44076,999,2642,0,-.105E-5,0
EMISAT,2019-018A,2026-05-26T05:50:06.952992,14.43674972,.00172737,98.4657,205.1623,285.0155,74.9123,0,U,44078,999,37689,.55859886E-4,.146E-5,0
O3B FM20,2019-020A,2026-05-25T10:11:14.758368,5.00115575,.00025023,0.0526,0.0731,54.6432,305.3067,0,U,44112,999,13043,0,-.24E-6,0
O3B FM19,2019-020B,2026-05-25T10:50:11.332320,5.00116159,.00039908,0.0663,341.8878,67.5893,310.5573,0,U,44113,999,13030,0,-.24E-6,0
O3B FM17,2019-020C,2026-05-25T22:21:16.568064,5.00115517,.00025999,0.0330,2.8565,59.6268,297.5430,0,U,44114,999,13041,0,-.23E-6,0
O3B FM18,2019-020D,2026-05-25T01:52:36.504192,5.00115354,.00027651,0.0530,0.0660,63.9912,295.9707,0,U,44115,999,13048,0,-.24E-6,0
ARABSAT-6A,2019-021A,2026-05-26T05:33:18.385056,1.00282620,.00014369,0.0517,4.6949,32.5961,320.3493,0,U,44186,999,2593,0,.156E-5,0
BEIDOU-3 IGSO-1,2019-023A,2026-05-12T18:25:31.496160,1.00250503,.00238565,58.6468,38.0171,234.3090,349.8662,0,U,44204,999,685,0,-.227E-5,0
TIANHUI 2-01A,2019-024A,2026-05-25T09:34:43.490208,15.16749358,.00015786,97.4800,149.6389,112.5925,247.5476,0,U,44207,999,9868,.81563224E-4,.1533E-4,0
TIANHUI 2-01B,2019-024C,2026-05-25T09:34:43.597344,15.16749232,.00019687,97.4800,149.6364,98.3523,261.7933,0,U,44209,999,39125,.81063516E-4,.1523E-4,0
BEIDOU-2 G8,2019-027A,2026-05-26T07:48:29.780352,1.00269004,.00106036,1.6051,74.4777,282.1302,148.9010,0,U,44231,999,2586,0,-.245E-5,0
RISAT-2B,2019-028A,2026-05-26T06:35:53.219328,15.01530287,.00058336,36.9956,124.0459,228.6877,131.3364,0,U,44233,999,38453,.20632337E-3,.2642E-4,0
